0 COSMOS 970
1 10531U 77121A   13281.88077822 -.00000063  00000-0  17785-4 0  4341
2 10531 065.8522 152.4278 0154097 277.2988 161.3648 13.59748483169612
0 COSMOS 970
1 10531U 77121A   13283.14472328 -.00000035  00000-0  53352-4 0  4352
2 10531 065.8520 149.3863 0154094 276.7290 228.4543 13.59748392169788
0 COSMOS 970
1 10531U 77121A   13284.17291154 -.00000022  00000-0  68968-4 0  4368
2 10531 065.8518 146.9120 0154120 276.2641 221.5008 13.59748390169923
0 COSMOS 970
1 10531U 77121A   13285.20326912 -.00000021  00000-0  70749-4 0  4374
2 10531 065.8517 144.4325 0154122 275.7953 225.1688 13.59748450170062
0 COSMOS 970
1 10531U 77121A   13286.80227773 -.00000033  00000-0  55059-4 0  4387
2 10531 065.8515 140.5846 0154135 275.0707 132.4176 13.59748671170280
0 COSMOS 970
1 10531U 77121A   13287.83848891 -.00000056  00000-0  26831-4 0  4393
2 10531 065.8514 138.0910 0154145 274.6017 164.7365 13.59748853170429
0 COSMOS 970
1 10531U 77121A   13289.10231464 -.00000075  00000-0  30628-5 0  4400
2 10531 065.8514 135.0496 0154152 274.0300 231.2433 13.59749055170591
0 COSMOS 970
1 10531U 77121A   13290.13454049 -.00000089  00000-0 -14625-4 0  4416
2 10531 065.8514 132.5655 0154159 273.5594 244.0586 13.59749131170738
0 COSMOS 970
1 10531U 77121A   13291.16085498 -.00000093  00000-0 -18891-4 0  4423
2 10531 065.8515 130.0956 0154159 273.0952 227.9344 13.59749199170870
0 COSMOS 970
1 10531U 77121A   13292.54002538 -.00000096  00000-0 -22771-4 0  4436
2 10531 065.8517 126.7765 0154135 272.4605 139.0739 13.59749088171064
0 COSMOS 970
1 10531U 77121A   13293.80696572 -.00000065  00000-0  15402-4 0  4442
2 10531 065.8512 123.7256 0154155 271.9534 220.7657 13.59748729171235
0 COSMOS 970
1 10531U 77121A   13294.83471697 -.00000064  00000-0  16368-4 0  4457
2 10531 065.8518 121.2542 0154148 271.4170 211.7449 13.59748770171375
0 COSMOS 970
1 10531U 77121A   13295.85847279 -.00000061  00000-0  20287-4 0  4466
2 10531 065.8518 118.7905 0154150 270.9562 183.0931 13.59748656171517
